[
  {
    "name": "ONEWEB-0534",
    "noradId": "55797",
    "line1": "1 55797U 23029B   26167.54784710  .00000111  00000+0  24222-3 0  9994",
    "line2": "2 55797  87.9186 274.5970 0001860 100.4777 259.6566 13.20771971161060"
  },
  {
    "name": "ONEWEB-0556",
    "noradId": "55798",
    "line1": "1 55798U 23029C   26167.55457868  .00000115  00000+0  25069-3 0  9991",
    "line2": "2 55798  87.9183 274.5952 0001632  75.0773 285.0541 13.20773788161062"
  },
  {
    "name": "ONEWEB-0562",
    "noradId": "55799",
    "line1": "1 55799U 23029D   26167.54111112  .00000029  00000+0  40326-4 0  9998",
    "line2": "2 55799  87.9184 274.5785 0002290  79.1976 280.9415 13.20770953161064"
  },
  {
    "name": "ONEWEB-0563",
    "noradId": "55800",
    "line1": "1 55800U 23029E   26167.53606800 -.00000279  00000+0 -71757-3 0  9993",
    "line2": "2 55800  87.9183 274.6101 0002121 112.7517 247.3841 13.20773582161057"
  },
  {
    "name": "ONEWEB-0564",
    "noradId": "55801",
    "line1": "1 55801U 23029F   26167.52933538  .00000022  00000+0  23339-4 0  9992",
    "line2": "2 55801  87.9185 274.5847 0002146  90.4316 269.7063 13.20771571161063"
  },
  {
    "name": "ONEWEB-0638",
    "noradId": "55802",
    "line1": "1 55802U 23029G   26167.63190658  .00000200  00000+0  50451-3 0  9995",
    "line2": "2 55802  87.8954 289.8624 0001750  82.7828 277.3500 13.14504115159329"
  },
  {
    "name": "ONEWEB-0639",
    "noradId": "55803",
    "line1": "1 55803U 23029H   26167.42538351  .00000034  00000+0  52917-4 0  9994",
    "line2": "2 55803  87.9169 305.1277 0001264 127.8656 232.2591 13.19725898158805"
  },
  {
    "name": "ONEWEB-0640",
    "noradId": "55804",
    "line1": "1 55804U 23029J   26167.56529006  .00000304  00000+0  78495-3 0  9995",
    "line2": "2 55804  87.8956 289.8666 0001371  83.5308 276.5978 13.14503134159331"
  },
  {
    "name": "ONEWEB-0641",
    "noradId": "55805",
    "line1": "1 55805U 23029K   26167.42063807  .00000056  00000+0  10659-3 0  9995",
    "line2": "2 55805  87.9177 305.1178 0001771 103.4735 256.6595 13.19724966158817"
  },
  {
    "name": "ONEWEB-0642",
    "noradId": "55806",
    "line1": "1 55806U 23029L   26167.64335696  .00000114  00000+0  25220-3 0  9993",
    "line2": "2 55806  87.9170 305.0852 0001567 125.4931 234.6348 13.19724942158832"
  },
  {
    "name": "ONEWEB-0643",
    "noradId": "55807",
    "line1": "1 55807U 23029M   26167.38292876  .00000003  00000+0 -25632-4 0  9993",
    "line2": "2 55807  87.8954 289.8902 0001879 121.7513 238.3801 13.14503656159285"
  },
  {
    "name": "ONEWEB-0644",
    "noradId": "55808",
    "line1": "1 55808U 23029N   26167.41116216  .00000082  00000+0  17145-3 0  9996",
    "line2": "2 55808  87.9167 305.1329 0001719 109.3348 250.7971 13.19724787158807"
  },
  {
    "name": "ONEWEB-0645",
    "noradId": "55809",
    "line1": "1 55809U 23029P   26167.35745616  .00000063  00000+0  12625-3 0  9999",
    "line2": "2 55809  87.9168 305.1406 0001401 100.0400 260.0891 13.19724728158798"
  },
  {
    "name": "ONEWEB-0646",
    "noradId": "55810",
    "line1": "1 55810U 23029Q   26167.37484203  .00000038  00000+0  63373-4 0  9994",
    "line2": "2 55810  87.9167 305.1373 0001734 107.7150 252.4172 13.19725309158789"
  },
  {
    "name": "ONEWEB-0648",
    "noradId": "55811",
    "line1": "1 55811U 23029R   26167.57954819  .00000010  00000+0 -62893-5 0  9990",
    "line2": "2 55811  87.8967 289.8244 0001079 119.8161 240.3077 13.14501616159318"
  },
  {
    "name": "ONEWEB-0649",
    "noradId": "55812",
    "line1": "1 55812U 23029S   26167.62755482  .00000055  00000+0  10467-3 0  9998",
    "line2": "2 55812  87.9169 305.0844 0001620 101.5275 258.6040 13.19725623158858"
  },
  {
    "name": "ONEWEB-0650",
    "noradId": "55813",
    "line1": "1 55813U 23029T   26167.39535499  .00000080  00000+0  16752-3 0  9998",
    "line2": "2 55813  87.9167 305.1333 0001565 115.3056 244.8239 13.19725355158791"
  },
  {
    "name": "ONEWEB-0652",
    "noradId": "55814",
    "line1": "1 55814U 23029U   26167.63663244  .00000213  00000+0  53877-3 0  9993",
    "line2": "2 55814  87.8962 289.8204 0002023  98.7813 261.3546 13.14505091159293"
  },
  {
    "name": "ONEWEB-0653",
    "noradId": "55815",
    "line1": "1 55815U 23029V   26167.39243198  .00000157  00000+0  39009-3 0  9997",
    "line2": "2 55815  87.8961 289.8669 0001887  97.9850 262.1494 13.14503606159298"
  },
  {
    "name": "ONEWEB-0654",
    "noradId": "55816",
    "line1": "1 55816U 23029W   26167.38767423  .00000065  00000+0  14034-3 0  9998",
    "line2": "2 55816  87.8963 289.8642 0002129  92.2953 267.8421 13.14504475159314"
  },
  {
    "name": "ONEWEB-0656",
    "noradId": "55817",
    "line1": "1 55817U 23029X   26167.52259546  .00000049  00000+0  89673-4 0  9991",
    "line2": "2 55817  87.9197 274.5620 0002295  92.2560 267.8836 13.20773146161065"
  },
  {
    "name": "ONEWEB-0657",
    "noradId": "55818",
    "line1": "1 55818U 23029Y   26167.39063643  .00000081  00000+0  17076-3 0  9991",
    "line2": "2 55818  87.9168 305.1329 0002531 103.0746 257.0670 13.19725185158804"
  },
  {
    "name": "ONEWEB-0658",
    "noradId": "55819",
    "line1": "1 55819U 23029Z   26167.61334669  .00000007  00000+0 -13786-4 0  9990",
    "line2": "2 55819  87.9178 305.0640 0001686 111.1170 249.0143 13.19724653158841"
  },
  {
    "name": "ONEWEB-0660",
    "noradId": "55820",
    "line1": "1 55820U 23029AA  26167.59382676 -.00000191  00000+0 -54954-3 0  9996",
    "line2": "2 55820  87.8973 289.8159 0001568  98.1404 261.9904 13.14503452159321"
  },
  {
    "name": "ONEWEB-0661",
    "noradId": "55821",
    "line1": "1 55821U 23029AB  26167.62872668  .00000222  00000+0  56337-3 0  9996",
    "line2": "2 55821  87.8956 289.8541 0001622  93.9731 266.1585 13.14503003159318"
  },
  {
    "name": "ONEWEB-0662",
    "noradId": "55822",
    "line1": "1 55822U 23029AC  26167.58749014 -.00000084  00000+0 -26094-3 0  9995",
    "line2": "2 55822  87.8954 289.8683 0001577  98.4827 261.6482 13.14502725159359"
  },
  {
    "name": "ONEWEB-0663",
    "noradId": "55823",
    "line1": "1 55823U 23029AD  26167.25347310 -.00014780  00000+0 -36453-1 0  9999",
    "line2": "2 55823  87.9199 274.6876 0002976 105.3991 254.7471 13.20752126161029"
  },
  {
    "name": "ONEWEB-0664",
    "noradId": "55824",
    "line1": "1 55824U 23029AE  26167.58488547 -.00000072  00000+0 -20860-3 0  9990",
    "line2": "2 55824  87.9182 274.6025 0001796  86.4464 273.6875 13.20770199161063"
  },
  {
    "name": "ONEWEB-0665",
    "noradId": "55825",
    "line1": "1 55825U 23029AF  26167.62555377  .00000265  00000+0  68052-3 0  9999",
    "line2": "2 55825  87.8954 289.8356 0001546 101.9829 258.1474 13.14503956159334"
  },
  {
    "name": "ONEWEB-0666",
    "noradId": "55826",
    "line1": "1 55826U 23029AG  26167.57815136  .00000084  00000+0  17504-3 0  9991",
    "line2": "2 55826  87.9183 274.5937 0002674 104.9179 255.2250 13.20771576161076"
  }
]