OBJECT_NAME,OBJECT_ID,EPOCH,MEAN_MOTION,ECCENTRICITY,INCLINATION,RA_OF_ASC_NODE,ARG_OF_PERICENTER,MEAN_ANOMALY,EPHEMERIS_TYPE,CLASSIFICATION_TYPE,NORAD_CAT_ID,ELEMENT_SET_NO,REV_AT_EPOCH,BSTAR,MEAN_MOTION_DOT,MEAN_MOTION_DDOT
ONEWEB-0534,2023-029B,2026-06-16T13:08:53.989440,13.20771971,.00018602,87.9186,274.5970,100.4777,259.6566,0,U,55797,999,16106,.24221868E-3,.111E-5,0
ONEWEB-0556,2023-029C,2026-06-16T13:18:35.597952,13.20773788,.00016328,87.9183,274.5952,75.0773,285.0541,0,U,55798,999,16106,.25068778E-3,.115E-5,0
ONEWEB-0562,2023-029D,2026-06-16T12:59:12.000768,13.20770953,.00022906,87.9184,274.5785,79.1976,280.9415,0,U,55799,999,16106,.40325599E-4,.29E-6,0
ONEWEB-0563,2023-029E,2026-06-16T12:51:56.275200,13.20773582,.00021215,87.9183,274.6101,112.7517,247.3841,0,U,55800,999,16105,-.71757273E-3,-.279E-5,0
ONEWEB-0564,2023-029F,2026-06-16T12:42:14.576832,13.20771571,.00021466,87.9185,274.5847,90.4316,269.7063,0,U,55801,999,16106,.23339236E-4,.22E-6,0
ONEWEB-0638,2023-029G,2026-06-16T15:09:56.728512,13.14504115,.00017507,87.8954,289.8624,82.7828,277.3500,0,U,55802,999,15932,.50450787E-3,.2E-5,0
ONEWEB-0639,2023-029H,2026-06-16T10:12:33.135264,13.19725898,.00012647,87.9169,305.1277,127.8656,232.2591,0,U,55803,999,15880,.52917397E-4,.34E-6,0
ONEWEB-0640,2023-029J,2026-06-16T13:34:01.061184,13.14503134,.00013719,87.8956,289.8666,83.5308,276.5978,0,U,55804,999,15933,.78494828E-3,.304E-5,0
ONEWEB-0641,2023-029K,2026-06-16T10:05:43.129248,13.19724966,.00017719,87.9177,305.1178,103.4735,256.6595,0,U,55805,999,15881,.10659209E-3,.56E-6,0
ONEWEB-0642,2023-029L,2026-06-16T15:26:26.041344,13.19724942,.00015676,87.9170,305.0852,125.4931,234.6348,0,U,55806,999,15883,.25220259E-3,.114E-5,0
ONEWEB-0643,2023-029M,2026-06-16T09:11:25.044864,13.14503656,.00018792,87.8954,289.8902,121.7513,238.3801,0,U,55807,999,15928,-.25632257E-4,.3E-7,0
ONEWEB-0644,2023-029N,2026-06-16T09:52:04.410624,13.19724787,.00017195,87.9167,305.1329,109.3348,250.7971,0,U,55808,999,15880,.17144948E-3,.82E-6,0
ONEWEB-0645,2023-029P,2026-06-16T08:34:44.212224,13.19724728,.00014019,87.9168,305.1406,100.0400,260.0891,0,U,55809,999,15879,.12625426E-3,.63E-6,0
ONEWEB-0646,2023-029Q,2026-06-16T08:59:46.351392,13.19725309,.00017341,87.9167,305.1373,107.7150,252.4172,0,U,55810,999,15878,.63373017E-4,.38E-6,0
ONEWEB-0648,2023-029R,2026-06-16T13:54:32.963616,13.14501616,.0001079,87.8967,289.8244,119.8161,240.3077,0,U,55811,999,15931,-.6289257E-5,.1E-6,0
ONEWEB-0649,2023-029S,2026-06-16T15:03:40.736448,13.19725623,.000162,87.9169,305.0844,101.5275,258.6040,0,U,55812,999,15885,.10466594E-3,.55E-6,0
ONEWEB-0650,2023-029T,2026-06-16T09:29:18.671136,13.19725355,.00015656,87.9167,305.1333,115.3056,244.8239,0,U,55813,999,15879,.16752188E-3,.8E-6,0
ONEWEB-0652,2023-029U,2026-06-16T15:16:45.042816,13.14505091,.00020236,87.8962,289.8204,98.7813,261.3546,0,U,55814,999,15929,.53876671E-3,.213E-5,0
ONEWEB-0653,2023-029V,2026-06-16T09:25:06.123072,13.14503606,.00018875,87.8961,289.8669,97.9850,262.1494,0,U,55815,999,15929,.3900947E-3,.157E-5,0
ONEWEB-0654,2023-029W,2026-06-16T09:18:15.053472,13.14504475,.00021296,87.8963,289.8642,92.2953,267.8421,0,U,55816,999,15931,.14033618E-3,.65E-6,0
ONEWEB-0656,2023-029X,2026-06-16T12:32:32.247744,13.20773146,.00022953,87.9197,274.5620,92.2560,267.8836,0,U,55817,999,16106,.89672514E-4,.49E-6,0
ONEWEB-0657,2023-029Y,2026-06-16T09:22:30.987552,13.19725185,.00025317,87.9168,305.1329,103.0746,257.0670,0,U,55818,999,15880,.1707562E-3,.81E-6,0
ONEWEB-0658,2023-029Z,2026-06-16T14:43:13.154016,13.19724653,.00016864,87.9178,305.0640,111.1170,249.0143,0,U,55819,999,15884,-.13785655E-4,.7E-7,0
ONEWEB-0660,2023-029AA,2026-06-16T14:15:06.632064,13.14503452,.00015689,87.8973,289.8159,98.1404,261.9904,0,U,55820,999,15932,-.54954013E-3,-.191E-5,0
ONEWEB-0661,2023-029AB,2026-06-16T15:05:21.985152,13.14503003,.00016227,87.8956,289.8541,93.9731,266.1585,0,U,55821,999,15931,.563371E-3,.222E-5,0
ONEWEB-0662,2023-029AC,2026-06-16T14:05:59.148096,13.14502725,.0001577,87.8954,289.8683,98.4827,261.6482,0,U,55822,999,15935,-.26094246E-3,-.84E-6,0
ONEWEB-0663,2023-029AD,2026-06-16T06:05:00.075840,13.20752126,.0002976,87.9199,274.6876,105.3991,254.7471,0,U,55823,999,16102,-.36453E-1,-.1478E-3,0
ONEWEB-0664,2023-029AE,2026-06-16T14:02:14.104608,13.20770199,.00017964,87.9182,274.6025,86.4464,273.6875,0,U,55824,999,16106,-.20859513E-3,-.72E-6,0
ONEWEB-0665,2023-029AF,2026-06-16T15:00:47.845728,13.14503956,.00015462,87.8954,289.8356,101.9829,258.1474,0,U,55825,999,15933,.6805203E-3,.265E-5,0
ONEWEB-0666,2023-029AG,2026-06-16T13:52:32.277504,13.20771576,.0002674,87.9183,274.5937,104.9179,255.2250,0,U,55826,999,16107,.17503619E-3,.84E-6,0
